KUZGTU 1 (RS47S)        
1 57217U 23091AV  26177.64842927  .00012638  00000+0  43581-3 0  9995
2 57217  97.5067 242.2252 0011889  68.6404 291.6104 15.30067568165828
SONATE-2                
1 59112U 24043Q   26177.38093513  .00041415  00000+0  52380-3 0  9991
2 59112  97.5531 328.3454 0007328 165.3783 194.7686 15.59385702129325
MESAT1                  
1 60209U 24125G   26177.57752686  .00056610  00000+0  59200-3 0  9996
2 60209  97.2279  35.2796 0010498 171.0383 189.1066 15.64220272111030
OOV-CUBE (TUBSAT-30)    
1 60240U 24128F   26177.30430608  .00001677  00000+0  13798-3 0  9997
2 60240  61.9924 193.7808 0043497 135.8027 224.6553 15.02804000107481
COLIBRI-S (RS67S)       
1 61746U 24199M   26177.69411610  .00022111  00000+0  42245-3 0  9996
2 61746  97.2985  51.6370 0006616 232.5942 127.4707 15.48101307138880
HORS 3 (RS81S)          
1 61753U 24199U   26177.67618485  .00037291  00000+0  54347-3 0  9992
2 61753  97.2972  53.7096 0004432 224.2371 135.8530 15.55613143139039
HORS 4 (RS82S)          
1 61754U 24199V   26177.73578088  .00046479  00000+0  56205-3 0  9997
2 61754  97.2915  55.0349 0004428 207.8037 152.2985 15.60564924139130
SIT-2086                
1 61764U 24199AF  26177.73036002  .00035726  00000+0  55766-3 0  9997
2 61764  97.2930  54.2082 0005752 207.1423 152.9531 15.53727300135913
HYPERVIEW 1G (RS66S)    
1 61772U 24199AP  26177.70728368  .00160644  00000+0  91163-3 0  9995
2 61772  97.2856  57.9244 0005971 186.9309 173.1876 15.78556815136173
ALTAIR (RS65S)          
1 61779U 24199AW  26177.61661985  .00010879  00000+0  30033-3 0  9996
2 61779  97.3026  46.9061 0010757 271.6388  88.3625 15.37192588138564
ASRTU-1 (AO-123)        
1 61781U 24199AY  26177.61286361  .00007443  00000+0  21554-3 0  9991
2 61781  97.2996  46.1992 0011894 275.3488  84.6399 15.35802996135374
SAMSAT-IONOSPHERE (RS7*)
1 61784U 24199BB  26177.62932567  .00045342  00000+0  59385-3 0  9994
2 61784  97.2939  53.7433 0006656 229.1711 130.8968 15.58442670139031
RTU MIREA 1 (RS51S)     
1 61785U 24199BC  26177.63226347  .00056640  00000+0  64418-3 0  9994
2 61785  97.2926  54.6278 0006601 220.9864 139.0898 15.62106853135947
TEVEL2-4                
1 63213U 25052D   26177.70125990  .00018658  00000+0  55219-3 0  9997
2 63213  97.3900  74.1099 0004870  85.4721 274.7078 15.34932278 71570
TEVEL2-5                
1 63214U 25052E   26177.65764458  .00018673  00000+0  55577-3 0  9994
2 63214  97.3899  74.0111 0004829  86.9960 273.1835 15.34752753 71568
TEVEL2-6                
1 63215U 25052F   26177.67019081  .00018893  00000+0  56291-3 0  9990
2 63215  97.3903  74.0082 0004687  88.0082 272.1698 15.34718267 71560
TEVEL2-1                
1 63217U 25052H   26177.24597688  .00020561  00000+0  62319-3 0  9992
2 63217  97.3872  73.1969 0005001  96.2961 263.8851 15.34157117 71489
TEVEL2-3                
1 63218U 25052J   26177.69683875  .00017292  00000+0  52351-3 0  9998
2 63218  97.3879  73.6710 0004870  95.9562 264.2236 15.34230406 71555
TEVEL2-2                
1 63219U 25052K   26177.44190834  .00020069  00000+0  60803-3 0  9997
2 63219  97.3873  73.3957 0005013  96.2979 263.8835 15.34174568 71518
TEVEL2-9                
1 63237U 25052AD  26177.69258652  .00015944  00000+0  51470-3 0  9993
2 63237  97.3935  73.0013 0008293 105.3749 254.8409 15.32177387 71480
TEVEL2-7                
1 63238U 25052AE  26177.67001963  .00015960  00000+0  52010-3 0  9992
2 63238  97.3940  72.8907 0008374 105.7247 254.4918 15.31873185 71471
TEVEL2-8                
1 63239U 25052AF  26177.22110573  .00017980  00000+0  58597-3 0  9992
2 63239  97.3937  72.4192 0008385 107.6731 252.5427 15.31844407 71403
INNOSAT 16 (RS92S7)     
1 64878U 25155C   26177.71002128  .00005935  00000+0  23641-3 0  9995
2 64878  97.4562 144.8077 0011633 144.0932 216.1089 15.25551498 82121
GEOSCAN 6 (RS92S6)      
1 64879U 25155D   26177.72878113  .00010317  00000+0  35386-3 0  9991
2 64879  97.4553 146.3183 0009391 133.6774 226.5247 15.30320748 82223
GEOSCAN 1 (RS92S1)      
1 64880U 25155E   26177.72747237  .00011886  00000+0  39953-3 0  9991
2 64880  97.4550 146.4732 0009347 133.6552 226.5466 15.30935666 82233
239ALFEROV (RS61S)      
1 64881U 25155F   26177.68331962  .00014332  00000+0  44861-3 0  9994
2 64881  97.4550 147.0227 0009048 131.7269 228.4749 15.33183195 82265
GEOSCAN 2 (RS92S2)      
1 64890U 25155Q   26177.71947183  .00010519  00000+0  35111-3 0  9997
2 64890  97.4549 146.6214 0008978 122.2172 237.9940 15.31201323 82241
GEOSCAN 5 (RS92S5)      
1 64891U 25155R   26177.73563604  .00014514  00000+0  44992-3 0  9998
2 64891  97.4542 147.2166 0007912 135.0894 225.0990 15.33501282 82284
GEOSCAN 4 (RS92S4)      
1 64892U 25155S   26177.71885865  .00014574  00000+0  44951-3 0  9994
2 64892  97.4545 147.2507 0007950 134.5807 225.6085 15.33659012 82283
GEOSCAN 3 (RS92S3)      
1 64893U 25155T   26177.70715223  .00017987  00000+0  51934-3 0  9994
2 64893  97.4533 147.6966 0007933 133.8468 226.3432 15.35700199 82313
