OBJECT_NAME,OBJECT_ID,EPOCH,MEAN_MOTION,ECCENTRICITY,INCLINATION,RA_OF_ASC_NODE,ARG_OF_PERICENTER,MEAN_ANOMALY,EPHEMERIS_TYPE,CLASSIFICATION_TYPE,NORAD_CAT_ID,ELEMENT_SET_NO,REV_AT_EPOCH,BSTAR,MEAN_MOTION_DOT,MEAN_MOTION_DDOT
KUZGTU 1 (RS47S),2023-091AV,2026-06-26T15:33:44.288928,15.30067568,.0011889,97.5067,242.2252,68.6404,291.6104,0,U,57217,999,16582,.43581E-3,.12638E-3,0
SONATE-2,2024-043Q,2026-06-26T09:08:32.795232,15.59385702,.0007328,97.5531,328.3454,165.3783,194.7686,0,U,59112,999,12932,.5238E-3,.41415E-3,0
MESAT1,2024-125G,2026-06-26T13:51:38.320704,15.64220272,.00104983,97.2279,35.2796,171.0383,189.1066,0,U,60209,999,11103,.5920034E-3,.5661E-3,0
OOV-CUBE (TUBSAT-30),2024-128F,2026-06-26T07:18:12.045312,15.02804000,.00434971,61.9924,193.7808,135.8027,224.6553,0,U,60240,999,10748,.13798353E-3,.1677E-4,0
COLIBRI-S (RS67S),2024-199M,2026-06-26T16:39:31.631040,15.48101307,.0006616,97.2985,51.6370,232.5942,127.4707,0,U,61746,999,13888,.42245E-3,.22111E-3,0
HORS 3 (RS81S),2024-199U,2026-06-26T16:13:42.371040,15.55613143,.0004432,97.2972,53.7096,224.2371,135.8530,0,U,61753,999,13903,.54347E-3,.37291E-3,0
HORS 4 (RS82S),2024-199V,2026-06-26T17:39:31.468032,15.60564924,.0004428,97.2915,55.0349,207.8037,152.2985,0,U,61754,999,13913,.56205E-3,.46479E-3,0
SIT-2086,2024-199AF,2026-06-26T17:31:43.105728,15.53727300,.0005752,97.2930,54.2082,207.1423,152.9531,0,U,61764,999,13591,.55766E-3,.35726E-3,0
HYPERVIEW 1G (RS66S),2024-199AP,2026-06-26T16:58:29.309952,15.78556815,.0005971,97.2856,57.9244,186.9309,173.1876,0,U,61772,999,13617,.91163E-3,.160644E-2,0
ALTAIR (RS65S),2024-199AW,2026-06-26T14:47:55.955040,15.37192588,.00107573,97.3026,46.9061,271.6388,88.3625,0,U,61779,999,13856,.30032688E-3,.10879E-3,0
ASRTU-1 (AO-123),2024-199AY,2026-06-26T14:42:31.415904,15.35802996,.00118944,97.2996,46.1992,275.3488,84.6399,0,U,61781,999,13537,.21553958E-3,.7443E-4,0
SAMSAT-IONOSPHERE (RS75S),2024-199BB,2026-06-26T15:06:13.737888,15.58442670,.0006656,97.2939,53.7433,229.1711,130.8968,0,U,61784,999,13903,.59384988E-3,.45342E-3,0
RTU MIREA 1 (RS51S),2024-199BC,2026-06-26T15:10:27.563808,15.62106853,.00066013,97.2926,54.6278,220.9864,139.0898,0,U,61785,999,13594,.64417527E-3,.5664E-3,0
TEVEL2-4,2025-052D,2026-06-26T16:49:48.855360,15.34932278,.000487,97.3900,74.1099,85.4721,274.7078,0,U,63213,999,7157,.55219E-3,.18658E-3,0
TEVEL2-5,2025-052E,2026-06-26T15:47:00.491712,15.34752753,.0004829,97.3899,74.0111,86.9960,273.1835,0,U,63214,999,7156,.55577E-3,.18673E-3,0
TEVEL2-6,2025-052F,2026-06-26T16:05:04.485984,15.34718267,.0004687,97.3903,74.0082,88.0082,272.1698,0,U,63215,999,7156,.56291E-3,.18893E-3,0
TEVEL2-1,2025-052H,2026-06-26T05:54:12.402432,15.34157117,.0005001,97.3872,73.1969,96.2961,263.8851,0,U,63217,999,7148,.62319E-3,.20561E-3,0
TEVEL2-3,2025-052J,2026-06-26T16:43:26.868000,15.34230406,.000487,97.3879,73.6710,95.9562,264.2236,0,U,63218,999,7155,.52351E-3,.17292E-3,0
TEVEL2-2,2025-052K,2026-06-26T10:36:20.880576,15.34174568,.0005013,97.3873,73.3957,96.2979,263.8835,0,U,63219,999,7151,.60803E-3,.20069E-3,0
TEVEL2-9,2025-052AD,2026-06-26T16:37:19.475328,15.32177387,.0008293,97.3935,73.0013,105.3749,254.8409,0,U,63237,999,7148,.5147E-3,.15944E-3,0
TEVEL2-7,2025-052AE,2026-06-26T16:04:49.696032,15.31873185,.0008374,97.3940,72.8907,105.7247,254.4918,0,U,63238,999,7147,.5201E-3,.1596E-3,0
TEVEL2-8,2025-052AF,2026-06-26T05:18:23.535072,15.31844407,.0008385,97.3937,72.4192,107.6731,252.5427,0,U,63239,999,7140,.58597E-3,.1798E-3,0
INNOSAT 16 (RS92S7),2025-155C,2026-06-26T17:02:25.838592,15.25551498,.0011633,97.4562,144.8077,144.0932,216.1089,0,U,64878,999,8212,.23641E-3,.5935E-4,0
GEOSCAN 6 (RS92S6),2025-155D,2026-06-26T17:29:26.689632,15.30320748,.0009391,97.4553,146.3183,133.6774,226.5247,0,U,64879,999,8222,.35386E-3,.10317E-3,0
GEOSCAN 1 (RS92S1),2025-155E,2026-06-26T17:27:33.612768,15.30935666,.0009347,97.4550,146.4732,133.6552,226.5466,0,U,64880,999,8223,.39953E-3,.11886E-3,0
239ALFEROV (RS61S),2025-155F,2026-06-26T16:23:58.815168,15.33183195,.0009048,97.4550,147.0227,131.7269,228.4749,0,U,64881,999,8226,.44861E-3,.14332E-3,0
GEOSCAN 2 (RS92S2),2025-155Q,2026-06-26T17:16:02.366112,15.31201323,.0008978,97.4549,146.6214,122.2172,237.9940,0,U,64890,999,8224,.35111E-3,.10519E-3,0
GEOSCAN 5 (RS92S5),2025-155R,2026-06-26T17:39:18.953856,15.33501282,.0007912,97.4542,147.2166,135.0894,225.0990,0,U,64891,999,8228,.44992E-3,.14514E-3,0
GEOSCAN 4 (RS92S4),2025-155S,2026-06-26T17:15:09.387360,15.33659012,.000795,97.4545,147.2507,134.5807,225.6085,0,U,64892,999,8228,.44951E-3,.14574E-3,0
GEOSCAN 3 (RS92S3),2025-155T,2026-06-26T16:58:17.952672,15.35700199,.0007933,97.4533,147.6966,133.8468,226.3432,0,U,64893,999,8231,.51934E-3,.17987E-3,0
